[{"OBJECT_NAME":"ONEWEB-0260","OBJECT_ID":"2021-060M","EPOCH":"2025-12-08T06:15:45.998784","MEAN_MOTION":13.1659398,"ECCENTRICITY":0.00019272,"INCLINATION":87.9032,"RA_OF_ASC_NODE":266.8119,"ARG_OF_PERICENTER":86.7343,"MEAN_ANOMALY":273.4008,"EPHEMERIS_TYPE":0,"CLASSIFICATION_TYPE":"U","NORAD_CAT_ID":48978,"ELEMENT_SET_NO":999,"REV_AT_EPOCH":21448,"BSTAR":0.00037080427,"MEAN_MOTION_DOT":1.55e-6,"MEAN_MOTION_DDOT":0},{"OBJECT_NAME":"ONEWEB-0261","OBJECT_ID":"2021-060N","EPOCH":"2025-12-08T07:21:52.022304","MEAN_MOTION":13.16592338,"ECCENTRICITY":0.00021477,"INCLINATION":87.9033,"RA_OF_ASC_NODE":266.8047,"ARG_OF_PERICENTER":72.4618,"MEAN_ANOMALY":287.6748,"EPHEMERIS_TYPE":0,"CLASSIFICATION_TYPE":"U","NORAD_CAT_ID":48979,"ELEMENT_SET_NO":999,"REV_AT_EPOCH":21454,"BSTAR":0.0003563009,"MEAN_MOTION_DOT":1.49e-6,"MEAN_MOTION_DDOT":0},{"OBJECT_NAME":"ONEWEB-0262","OBJECT_ID":"2021-060P","EPOCH":"2025-12-08T06:53:22.432416","MEAN_MOTION":13.16595046,"ECCENTRICITY":0.00017709,"INCLINATION":87.9045,"RA_OF_ASC_NODE":266.7818,"ARG_OF_PERICENTER":64.4645,"MEAN_ANOMALY":295.6669,"EPHEMERIS_TYPE":0,"CLASSIFICATION_TYPE":"U","NORAD_CAT_ID":48980,"ELEMENT_SET_NO":999,"REV_AT_EPOCH":21450,"BSTAR":0.00018847467,"MEAN_MOTION_DOT":8.5e-7,"MEAN_MOTION_DDOT":0},{"OBJECT_NAME":"ONEWEB-0263","OBJECT_ID":"2021-060Q","EPOCH":"2025-12-08T05:49:32.156256","MEAN_MOTION":13.16595244,"ECCENTRICITY":0.00021106,"INCLINATION":87.9039,"RA_OF_ASC_NODE":266.8053,"ARG_OF_PERICENTER":69.0236,"MEAN_ANOMALY":291.1121,"EPHEMERIS_TYPE":0,"CLASSIFICATION_TYPE":"U","NORAD_CAT_ID":48981,"ELEMENT_SET_NO":999,"REV_AT_EPOCH":21446,"BSTAR":0.00054112938,"MEAN_MOTION_DOT":2.2e-6,"MEAN_MOTION_DDOT":0},{"OBJECT_NAME":"ONEWEB-0264","OBJECT_ID":"2021-060R","EPOCH":"2025-12-08T06:43:05.874240","MEAN_MOTION":13.16594414,"ECCENTRICITY":0.00019982,"INCLINATION":87.9037,"RA_OF_ASC_NODE":266.8016,"ARG_OF_PERICENTER":77.9074,"MEAN_ANOMALY":282.2281,"EPHEMERIS_TYPE":0,"CLASSIFICATION_TYPE":"U","NORAD_CAT_ID":48982,"ELEMENT_SET_NO":999,"REV_AT_EPOCH":21447,"BSTAR":-0.00061588585,"MEAN_MOTION_DOT":-2.23e-6,"MEAN_MOTION_DDOT":0},{"OBJECT_NAME":"ONEWEB-0266","OBJECT_ID":"2021-060T","EPOCH":"2025-12-08T07:13:53.838048","MEAN_MOTION":13.16595305,"ECCENTRICITY":0.00016191,"INCLINATION":87.9045,"RA_OF_ASC_NODE":266.7828,"ARG_OF_PERICENTER":70.5216,"MEAN_ANOMALY":289.609,"EPHEMERIS_TYPE":0,"CLASSIFICATION_TYPE":"U","NORAD_CAT_ID":48984,"ELEMENT_SET_NO":999,"REV_AT_EPOCH":21446,"BSTAR":2.444842e-6,"MEAN_MOTION_DOT":1.4e-7,"MEAN_MOTION_DDOT":0},{"OBJECT_NAME":"ONEWEB-0267","OBJECT_ID":"2021-060U","EPOCH":"2025-12-08T07:29:50.133120","MEAN_MOTION":13.16597218,"ECCENTRICITY":0.00019398,"INCLINATION":87.9039,"RA_OF_ASC_NODE":266.7797,"ARG_OF_PERICENTER":72.0232,"MEAN_ANOMALY":288.111,"EPHEMERIS_TYPE":0,"CLASSIFICATION_TYPE":"U","NORAD_CAT_ID":48985,"ELEMENT_SET_NO":999,"REV_AT_EPOCH":21447,"BSTAR":0.00065601467,"MEAN_MOTION_DOT":2.64e-6,"MEAN_MOTION_DDOT":0},{"OBJECT_NAME":"ONEWEB-0268","OBJECT_ID":"2021-060V","EPOCH":"2025-12-08T06:44:15.426240","MEAN_MOTION":13.16595323,"ECCENTRICITY":0.00017826,"INCLINATION":87.9044,"RA_OF_ASC_NODE":266.7948,"ARG_OF_PERICENTER":75.9809,"MEAN_ANOMALY":284.152,"EPHEMERIS_TYPE":0,"CLASSIFICATION_TYPE":"U","NORAD_CAT_ID":48986,"ELEMENT_SET_NO":999,"REV_AT_EPOCH":21473,"BSTAR":5.5240209e-5,"MEAN_MOTION_DOT":3.4e-7,"MEAN_MOTION_DDOT":0},{"OBJECT_NAME":"ONEWEB-0269","OBJECT_ID":"2021-060W","EPOCH":"2025-12-08T06:16:53.308704","MEAN_MOTION":13.16596444,"ECCENTRICITY":0.00016816,"INCLINATION":87.9034,"RA_OF_ASC_NODE":266.8207,"ARG_OF_PERICENTER":81.5113,"MEAN_ANOMALY":278.6209,"EPHEMERIS_TYPE":0,"CLASSIFICATION_TYPE":"U","NORAD_CAT_ID":48987,"ELEMENT_SET_NO":999,"REV_AT_EPOCH":21450,"BSTAR":0.0003897456,"MEAN_MOTION_DOT":1.62e-6,"MEAN_MOTION_DDOT":0},{"OBJECT_NAME":"ONEWEB-0270","OBJECT_ID":"2021-060X","EPOCH":"2025-12-08T06:41:58.386336","MEAN_MOTION":13.16596228,"ECCENTRICITY":0.00020238,"INCLINATION":87.9045,"RA_OF_ASC_NODE":266.7965,"ARG_OF_PERICENTER":64.2951,"MEAN_ANOMALY":295.8388,"EPHEMERIS_TYPE":0,"CLASSIFICATION_TYPE":"U","NORAD_CAT_ID":48988,"ELEMENT_SET_NO":999,"REV_AT_EPOCH":21454,"BSTAR":0.00012805731,"MEAN_MOTION_DOT":6.2e-7,"MEAN_MOTION_DDOT":0},{"OBJECT_NAME":"ONEWEB-0271","OBJECT_ID":"2021-060Y","EPOCH":"2025-12-08T06:23:45.056544","MEAN_MOTION":13.16594574,"ECCENTRICITY":0.00019969,"INCLINATION":87.9049,"RA_OF_ASC_NODE":266.7876,"ARG_OF_PERICENTER":72.3378,"MEAN_ANOMALY":287.7971,"EPHEMERIS_TYPE":0,"CLASSIFICATION_TYPE":"U","NORAD_CAT_ID":48989,"ELEMENT_SET_NO":999,"REV_AT_EPOCH":21454,"BSTAR":0.00034191158,"MEAN_MOTION_DOT":1.44e-6,"MEAN_MOTION_DDOT":0},{"OBJECT_NAME":"ONEWEB-0272","OBJECT_ID":"2021-060Z","EPOCH":"2025-12-08T06:55:39.661536","MEAN_MOTION":13.16595663,"ECCENTRICITY":0.00020142,"INCLINATION":87.9037,"RA_OF_ASC_NODE":266.7995,"ARG_OF_PERICENTER":78.298,"MEAN_ANOMALY":281.8377,"EPHEMERIS_TYPE":0,"CLASSIFICATION_TYPE":"U","NORAD_CAT_ID":48990,"ELEMENT_SET_NO":999,"REV_AT_EPOCH":21449,"BSTAR":0.00022670629,"MEAN_MOTION_DOT":1.0e-6,"MEAN_MOTION_DDOT":0},{"OBJECT_NAME":"ONEWEB-0273","OBJECT_ID":"2021-060AA","EPOCH":"2025-12-08T07:27:34.308000","MEAN_MOTION":13.16595898,"ECCENTRICITY":0.00018618,"INCLINATION":87.9043,"RA_OF_ASC_NODE":266.7902,"ARG_OF_PERICENTER":70.5653,"MEAN_ANOMALY":289.5679,"EPHEMERIS_TYPE":0,"CLASSIFICATION_TYPE":"U","NORAD_CAT_ID":48991,"ELEMENT_SET_NO":999,"REV_AT_EPOCH":21447,"BSTAR":0.0001389624,"MEAN_MOTION_DOT":6.6e-7,"MEAN_MOTION_DDOT":0},{"OBJECT_NAME":"ONEWEB-0274","OBJECT_ID":"2021-060AB","EPOCH":"2025-12-08T06:14:37.239072","MEAN_MOTION":13.16594461,"ECCENTRICITY":0.00019619,"INCLINATION":87.9033,"RA_OF_ASC_NODE":266.8232,"ARG_OF_PERICENTER":83.9054,"MEAN_ANOMALY":276.23,"EPHEMERIS_TYPE":0,"CLASSIFICATION_TYPE":"U","NORAD_CAT_ID":48992,"ELEMENT_SET_NO":999,"REV_AT_EPOCH":21450,"BSTAR":0.00035660173,"MEAN_MOTION_DOT":1.49e-6,"MEAN_MOTION_DDOT":0},{"OBJECT_NAME":"ONEWEB-0275","OBJECT_ID":"2021-060AC","EPOCH":"2025-12-08T05:58:39.658368","MEAN_MOTION":13.16594226,"ECCENTRICITY":0.00018573,"INCLINATION":87.9043,"RA_OF_ASC_NODE":266.7958,"ARG_OF_PERICENTER":75.6755,"MEAN_ANOMALY":284.4582,"EPHEMERIS_TYPE":0,"CLASSIFICATION_TYPE":"U","NORAD_CAT_ID":48993,"ELEMENT_SET_NO":999,"REV_AT_EPOCH":21443,"BSTAR":0.00050403236,"MEAN_MOTION_DOT":2.06e-6,"MEAN_MOTION_DDOT":0},{"OBJECT_NAME":"ONEWEB-0276","OBJECT_ID":"2021-060AD","EPOCH":"2025-12-08T06:46:32.049696","MEAN_MOTION":13.16594962,"ECCENTRICITY":0.00017232,"INCLINATION":87.9047,"RA_OF_ASC_NODE":266.7888,"ARG_OF_PERICENTER":67.8956,"MEAN_ANOMALY":292.2357,"EPHEMERIS_TYPE":0,"CLASSIFICATION_TYPE":"U","NORAD_CAT_ID":48994,"ELEMENT_SET_NO":999,"REV_AT_EPOCH":21445,"BSTAR":2.5238287e-5,"MEAN_MOTION_DOT":2.2e-7,"MEAN_MOTION_DDOT":0}]
